NOAA 21 (JPSS-2)        
1 54234U 22150A   24333.88978159  .00000394  00000+0  20755-3 0  9995
2 54234  98.7079 269.7498 0002065  50.1648 309.9710 14.19557515106348
NOAA 2 (ITOS-D)         
1 06235U 72082A   24333.94527986 -.00000002  00000+0  28213-3 0  9991
2 06235 102.0227 334.8578 0004066 165.5222 313.2764 12.53191355384140
NOAA 3                  
1 06920U 73086A   24333.91182970 -.00000015  00000+0  23397-3 0  9996
2 06920 102.2862 331.3878 0006560  82.7883  38.6181 12.40375236311810
NOAA 4                  
1 07529U 74089A   24333.90389669 -.00000009  00000+0  23376-3 0  9999
2 07529 101.9988 329.7478 0008863 193.4863 202.5346 12.53188342288715
NOAA 5                  
1 09057U 76077A   24333.90280774 -.00000023  00000+0  17371-3 0  9997
2 09057 102.2327 307.1736 0009732 295.8993  90.2989 12.37809678184532
TIROS N                 
1 11060U 78096A   24333.93410126  .00000592  00000+0  30315-3 0  9999
2 11060  98.5134   8.0381 0011547  81.0350 279.2133 14.19028254598572
NOAA 6                  
1 11416U 79057A   24333.91159091  .00000932  00000+0  34351-3 0  9993
2 11416  98.6179 354.8918 0010849 129.5137 230.7009 14.34877361369871
NOAA 7                  
1 12553U 81059A   24333.79055378  .00000304  00000+0  17117-3 0  9994
2 12553  98.8734  33.1009 0012484  85.6574 274.6027 14.17629331244631
NOAA 8                  
1 13923U 83022A   24333.29771022  .00000656  00000+0  27422-3 0  9994
2 13923  98.7360 333.6339 0015852 111.9292 248.3576 14.29463618170219
NOAA 9                  
1 15427U 84123A   24333.75496154  .00000569  00000+0  30732-3 0  9990
2 15427  99.1242 335.3071 0015171 147.6829  25.6166 14.16782416 63344
NOAA 10                 
1 16969U 86073A   24333.91690483  .00000599  00000+0  25509-3 0  9996
2 16969  98.6579 318.4644 0011471 205.6711 184.2338 14.28838416988934
NOAA 12                 
1 21263U 91032A   24333.91111553  .00000471  00000+0  21325-3 0  9997
2 21263  98.5721 321.4471 0012658 237.9386 122.0566 14.26480808744626
NOAA 13                 
1 22739U 93050A   24333.88822501  .00000506  00000+0  29203-3 0  9998
2 22739  98.6306 285.3227 0008675 308.0182  52.0207 14.13393211613514
NOAA 14                 
1 23455U 94089A   24333.91285825  .00000301  00000+0  17837-3 0  9996
2 23455  98.4456 320.9013 0008310 269.0083  91.0139 14.14501294543281
NOAA 16                 
1 26536U 00055A   24333.85705923  .00000350  00000+0  20719-3 0  9995
2 26536  98.5125   5.7839 0011392 121.1173 239.1120 14.13707534543845
