OBJECT_NAME,OBJECT_ID,EPOCH,MEAN_MOTION,ECCENTRICITY,INCLINATION,RA_OF_ASC_NODE,ARG_OF_PERICENTER,MEAN_ANOMALY,EPHEMERIS_TYPE,CLASSIFICATION_TYPE,NORAD_CAT_ID,ELEMENT_SET_NO,REV_AT_EPOCH,BSTAR,MEAN_MOTION_DOT,MEAN_MOTION_DDOT
NOAA 2 (ITOS-D),1972-082A,2024-11-28T22:41:12.179904,12.53191355,.0004066,102.0227,334.8578,165.5222,313.2764,0,U,6235,999,38414,.28213E-3,-.2E-7,0
NOAA 3,1973-086A,2024-11-28T21:53:02.086080,12.40375236,.000656,102.2862,331.3878,82.7883,38.6181,0,U,6920,999,31181,.23397E-3,-.15E-6,0
NOAA 4,1974-089A,2024-11-28T21:41:36.674016,12.53188342,.0008863,101.9988,329.7478,193.4863,202.5346,0,U,7529,999,28871,.23376E-3,-.9E-7,0
NOAA 5,1976-077A,2024-11-28T21:40:02.588736,12.37809678,.0009732,102.2327,307.1736,295.8993,90.2989,0,U,9057,999,18453,.17371E-3,-.23E-6,0
TIROS N,1978-096A,2024-11-28T22:25:06.348864,14.19028254,.0011547,98.5134,8.0381,81.0350,279.2133,0,U,11060,999,59857,.30315E-3,.592E-5,0
NOAA 6,1979-057A,2024-11-28T21:52:41.454624,14.34877361,.0010849,98.6179,354.8918,129.5137,230.7009,0,U,11416,999,36987,.34351E-3,.932E-5,0
NOAA 7,1981-059A,2024-11-28T18:58:23.846592,14.17629331,.0012484,98.8734,33.1009,85.6574,274.6027,0,U,12553,999,24463,.17117E-3,.304E-5,0
NOAA 8,1983-022A,2024-11-28T07:08:42.163008,14.29463618,.0015852,98.7360,333.6339,111.9292,248.3576,0,U,13923,999,17021,.27422E-3,.656E-5,0
NOAA 9,1984-123A,2024-11-28T18:07:08.677056,14.16782416,.0015171,99.1242,335.3071,147.6829,25.6166,0,U,15427,999,6334,.30732E-3,.569E-5,0
NOAA 10,1986-073A,2024-11-28T22:00:20.577312,14.28838416,.0011471,98.6579,318.4644,205.6711,184.2338,0,U,16969,999,98893,.25509E-3,.599E-5,0
NOAA 12,1991-032A,2024-11-28T21:52:00.381792,14.26480808,.0012658,98.5721,321.4471,237.9386,122.0566,0,U,21263,999,74462,.21325E-3,.471E-5,0
NOAA 13,1993-050A,2024-11-28T21:19:02.640864,14.13393211,.0008675,98.6306,285.3227,308.0182,52.0207,0,U,22739,999,61351,.29203E-3,.506E-5,0
NOAA 14,1994-089A,2024-11-28T21:54:30.952800,14.14501294,.000831,98.4456,320.9013,269.0083,91.0139,0,U,23455,999,54328,.17837E-3,.301E-5,0
NOAA 16,2000-055A,2024-11-28T20:34:09.917472,14.13707534,.0011392,98.5125,5.7839,121.1173,239.1120,0,U,26536,999,54384,.20719E-3,.35E-5,0
NOAA 21 (JPSS-2),2022-150A,2024-11-28T21:21:17.129376,14.19557515,.0002065,98.7079,269.7498,50.1648,309.9710,0,U,54234,999,10634,.20755E-3,.394E-5,0
